[
    {
        "Altitude(m)": 554417.1257208404,
        "Argument of Periapsis(deg)": 0.0,
        "Eccentricity": 0.0,
        "Inclination(deg)": 53.0,
        "Latitude(deg)": 25.652280514324133,
        "Longitude(deg)": 143.93636005807156,
        "Mean Anomaly(deg)": 147.2727,
        "RAAN(deg)": 85.00000000000001,
        "Satellite Name": "Starlink Shell 1 383",
        "Satellite Number": 383,
        "Semi-Major Axis(m)": 6931778.249405717,
        "Time(s)": 0
    },
    {
        "Altitude(m)": 554357.0754870776,
        "Argument of Periapsis(deg)": 0.00034857847951123687,
        "Eccentricity": 0.0,
        "Inclination(deg)": 53.0,
        "Latitude(deg)": 25.182054395943695,
        "Longitude(deg)": 144.3563548490567,
        "Mean Anomaly(deg)": 147.89953120355673,
        "RAAN(deg)": 84.99948122992254,
        "Satellite Name": "Starlink Shell 1 383",
        "Satellite Number": 383,
        "Semi-Major Axis(m)": 6931778.249405717,
        "Time(s)": 10
    },
    {
        "Altitude(m)": 554298.6220734905,
        "Argument of Periapsis(deg)": 0.0006971569590224737,
        "Eccentricity": 0.0,
        "Inclination(deg)": 53.0,
        "Latitude(deg)": 24.710372405139374,
        "Longitude(deg)": 144.7728197606812,
        "Mean Anomaly(deg)": 148.52636240711345,
        "RAAN(deg)": 84.99896245984506,
        "Satellite Name": "Starlink Shell 1 383",
        "Satellite Number": 383,
        "Semi-Major Axis(m)": 6931778.249405717,
        "Time(s)": 20
    },
    {
        "Altitude(m)": 554241.8138082575,
        "Argument of Periapsis(deg)": 0.0010457354385337105,
        "Eccentricity": 0.0,
        "Inclination(deg)": 53.0,
        "Latitude(deg)": 24.237275734972002,
        "Longitude(deg)": 145.18584558473876,
        "Mean Anomaly(deg)": 149.15319361067014,
        "RAAN(deg)": 84.9984436897676,
        "Satellite Name": "Starlink Shell 1 383",
        "Satellite Number": 383,
        "Semi-Major Axis(m)": 6931778.249405717,
        "Time(s)": 30
    },
    {
        "Altitude(m)": 554186.6983676447,
        "Argument of Periapsis(deg)": 0.0013943139180449475,
        "Eccentricity": 0.0,
        "Inclination(deg)": 53.0,
        "Latitude(deg)": 23.762804743810225,
        "Longitude(deg)": 145.59552235566585,
        "Mean Anomaly(deg)": 149.7800248142268,
        "RAAN(deg)": 84.99792491969012,
        "Satellite Name": "Starlink Shell 1 383",
        "Satellite Number": 383,
        "Semi-Major Axis(m)": 6931778.249405717,
        "Time(s)": 40
    },
    {
        "Altitude(m)": 554133.3227501747,
        "Argument of Periapsis(deg)": 0.0017428923975561844,
        "Eccentricity": 0.0,
        "Inclination(deg)": 53.0,
        "Latitude(deg)": 23.28699898140387,
        "Longitude(deg)": 146.00193835820755,
        "Mean Anomaly(deg)": 150.40685601778355,
        "RAAN(deg)": 84.99740614961264,
        "Satellite Name": "Starlink Shell 1 383",
        "Satellite Number": 383,
        "Semi-Major Axis(m)": 6931778.249405717,
        "Time(s)": 50
    },
    {
        "Altitude(m)": 554081.7332511197,
        "Argument of Periapsis(deg)": 0.002091470877067421,
        "Eccentricity": 0.0,
        "Inclination(deg)": 53.0,
        "Latitude(deg)": 22.809897214424083,
        "Longitude(deg)": 146.40518064933121,
        "Mean Anomaly(deg)": 151.0336872213403,
        "RAAN(deg)": 84.99688737953518,
        "Satellite Name": "Starlink Shell 1 383",
        "Satellite Number": 383,
        "Semi-Major Axis(m)": 6931778.249405717,
        "Time(s)": 60
    },
    {
        "Altitude(m)": 554031.9754372876,
        "Argument of Periapsis(deg)": 0.0024400493565786582,
        "Eccentricity": 0.0,
        "Inclination(deg)": 53.0,
        "Latitude(deg)": 22.33153745147293,
        "Longitude(deg)": 146.80533558138035,
        "Mean Anomaly(deg)": 151.660518424897,
        "RAAN(deg)": 84.99636860945769,
        "Satellite Name": "Starlink Shell 1 383",
        "Satellite Number": 383,
        "Semi-Major Axis(m)": 6931778.249405717,
        "Time(s)": 70
    },
    {
        "Altitude(m)": 553984.0941221407,
        "Argument of Periapsis(deg)": 0.002788627836089895,
        "Eccentricity": 0.0,
        "Inclination(deg)": 53.0,
        "Latitude(deg)": 21.851956967569087,
        "Longitude(deg)": 147.20248781346857,
        "Mean Anomaly(deg)": 152.2873496284537,
        "RAAN(deg)": 84.99584983938023,
        "Satellite Name": "Starlink Shell 1 383",
        "Satellite Number": 383,
        "Semi-Major Axis(m)": 6931778.249405717,
        "Time(s)": 80
    },
    {
        "Altitude(m)": 553938.1333412741,
        "Argument of Periapsis(deg)": 0.0031372063156011316,
        "Eccentricity": 0.0,
        "Inclination(deg)": 53.0,
        "Latitude(deg)": 21.371192328107906,
        "Longitude(deg)": 147.59672083674704,
        "Mean Anomaly(deg)": 152.9141808320104,
        "RAAN(deg)": 84.99533106930275,
        "Satellite Name": "Starlink Shell 1 383",
        "Satellite Number": 383,
        "Semi-Major Axis(m)": 6931778.249405717,
        "Time(s)": 90
    },
    {
        "Altitude(m)": 553894.1363282067,
        "Argument of Periapsis(deg)": 0.0034857847951123688,
        "Eccentricity": 0.0,
        "Inclination(deg)": 53.0,
        "Latitude(deg)": 20.88927941230509,
        "Longitude(deg)": 147.9881175005649,
        "Mean Anomaly(deg)": 153.54101203556715,
        "RAAN(deg)": 84.99481229922527,
        "Satellite Name": "Starlink Shell 1 383",
        "Satellite Number": 383,
        "Semi-Major Axis(m)": 6931778.249405717,
        "Time(s)": 100
    },
    {
        "Altitude(m)": 553852.1454905802,
        "Argument of Periapsis(deg)": 0.003834363274623606,
        "Eccentricity": 0.0,
        "Inclination(deg)": 53.0,
        "Latitude(deg)": 20.40625343613161,
        "Longitude(deg)": 148.3767590265482,
        "Mean Anomaly(deg)": 154.16784323912384,
        "RAAN(deg)": 84.99429352914781,
        "Satellite Name": "Starlink Shell 1 383",
        "Satellite Number": 383,
        "Semi-Major Axis(m)": 6931778.249405717,
        "Time(s)": 110
    },
    {
        "Altitude(m)": 553812.2023867154,
        "Argument of Periapsis(deg)": 0.004182941754134842,
        "Eccentricity": 0.0,
        "Inclination(deg)": 53.0,
        "Latitude(deg)": 19.92214897474258,
        "Longitude(deg)": 148.7627255362576,
        "Mean Anomaly(deg)": 154.79467444268053,
        "RAAN(deg)": 84.99377475907033,
        "Satellite Name": "Starlink Shell 1 383",
        "Satellite Number": 383,
        "Semi-Major Axis(m)": 6931778.249405717,
        "Time(s)": 120
    },
    {
        "Altitude(m)": 553774.3477025713,
        "Argument of Periapsis(deg)": 0.004531520233646079,
        "Eccentricity": 0.0,
        "Inclination(deg)": 53.0,
        "Latitude(deg)": 19.43699998441229,
        "Longitude(deg)": 149.1460965794637,
        "Mean Anomaly(deg)": 155.42150564623728,
        "RAAN(deg)": 84.99325598899286,
        "Satellite Name": "Starlink Shell 1 383",
        "Satellite Number": 383,
        "Semi-Major Axis(m)": 6931778.249405717,
        "Time(s)": 130
    },
    {
        "Altitude(m)": 553738.6212290963,
        "Argument of Periapsis(deg)": 0.0048800987131573164,
        "Eccentricity": 0.0,
        "Inclination(deg)": 53.0,
        "Latitude(deg)": 18.95083982398422,
        "Longitude(deg)": 149.5269501500918,
        "Mean Anomaly(deg)": 156.04833684979397,
        "RAAN(deg)": 84.9927372189154,
        "Satellite Name": "Starlink Shell 1 383",
        "Satellite Number": 383,
        "Semi-Major Axis(m)": 6931778.249405717,
        "Time(s)": 140
    },
    {
        "Altitude(m)": 553705.0618400068,
        "Argument of Periapsis(deg)": 0.005228677192668553,
        "Eccentricity": 0.0,
        "Inclination(deg)": 53.0,
        "Latitude(deg)": 18.463701275842848,
        "Longitude(deg)": 149.9053632155125,
        "Mean Anomaly(deg)": 156.67516805335072,
        "RAAN(deg)": 84.99221844883792,
        "Satellite Name": "Starlink Shell 1 383",
        "Satellite Number": 383,
        "Semi-Major Axis(m)": 6931778.249405717,
        "Time(s)": 150
    },
    {
        "Altitude(m)": 553673.7074699962,
        "Argument of Periapsis(deg)": 0.00557725567217979,
        "Eccentricity": 0.0,
        "Inclination(deg)": 53.0,
        "Latitude(deg)": 17.975616566419124,
        "Longitude(deg)": 150.28141224623894,
        "Mean Anomaly(deg)": 157.30199925690746,
        "RAAN(deg)": 84.99169967876044,
        "Satellite Name": "Starlink Shell 1 383",
        "Satellite Number": 383,
        "Semi-Major Axis(m)": 6931778.249405717,
        "Time(s)": 160
    },
    {
        "Altitude(m)": 553644.59509338,
        "Argument of Periapsis(deg)": 0.0059258341516910265,
        "Eccentricity": 0.0,
        "Inclination(deg)": 53.0,
        "Latitude(deg)": 17.48661738624216,
        "Longitude(deg)": 150.6551722330993,
        "Mean Anomaly(deg)": 157.92883046046413,
        "RAAN(deg)": 84.99118090868298,
        "Satellite Name": "Starlink Shell 1 383",
        "Satellite Number": 383,
        "Semi-Major Axis(m)": 6931778.249405717,
        "Time(s)": 170
    },
    {
        "Altitude(m)": 553617.7607031956,
        "Argument of Periapsis(deg)": 0.006274412631202263,
        "Eccentricity": 0.0,
        "Inclination(deg)": 53.0,
        "Latitude(deg)": 16.9967349095435,
        "Longitude(deg)": 151.02671721757756,
        "Mean Anomaly(deg)": 158.55566166402087,
        "RAAN(deg)": 84.9906621386055,
        "Satellite Name": "Starlink Shell 1 383",
        "Satellite Number": 383,
        "Semi-Major Axis(m)": 6931778.249405717,
        "Time(s)": 180
    }
]